ONEWEB-0012             
1 44057U 19010A   25351.31644283  .00000035  00000+0  56970-4 0  9996
2 44057  87.9037 265.0044 0002005  83.7550 276.3809 13.16596243327638
ONEWEB-0010             
1 44058U 19010B   25351.26577489 -.00000089  00000+0 -26572-3 0  9999
2 44058  87.9044 265.0045 0001832  62.8919 297.2399 13.16591927327676
ONEWEB-0008             
1 44059U 19010C   25351.29110639  .00000134  00000+0  31697-3 0  9996
2 44059  87.9045 264.9967 0001487  77.4929 282.6368 13.16596968327795
ONEWEB-0007             
1 44060U 19010D   25351.33385993 -.00000134  00000+0 -38994-3 0  9999
2 44060  87.8996 295.5154 0002167  74.8065 285.3305 13.15548622327465
ONEWEB-0006             
1 44061U 19010E   25351.33781305 -.00000001  00000+0 -37559-4 0  9997
2 44061  87.9005 295.4615 0001943  72.6033 287.5309 13.15547444327516
ONEWEB-0011             
1 44062U 19010F   25351.30612978  .00000145  00000+0  35001-3 0  9990
2 44062  87.9002 295.4769 0001646  75.9691 284.1622 13.15550149327506
ONEWEB-0013             
1 45131U 20008A   25351.31115920 -.00001046  00000+0 -30737-2 0  9996
2 45131  87.8514  89.5621 0002668 112.2149 247.9261 13.09445743282263
ONEWEB-0017             
1 45132U 20008B   25351.26886412 -.00000407  00000+0 -12026-2 0  9993
2 45132  87.8809  72.5406 0001583  96.6284 263.5023 13.10374418284123
ONEWEB-0020             
1 45133U 20008C   25351.23899601  .00000165  00000+0  43521-3 0  9999
2 45133  87.8811  72.5339 0001538 109.6667 250.4626 13.10369963284518
ONEWEB-0021             
1 45134U 20008D   25351.25392326 -.00000513  00000+0 -15047-2 0  9994
2 45134  87.8805  72.5599 0001800 103.0264 257.1064 13.10371381284824
ONEWEB-0023             
1 45136U 20008F   25351.26471372 -.00000592  00000+0 -17337-2 0  9997
2 45136  87.8806  72.5389 0001840 107.8669 252.2659 13.10374540284252
ONEWEB-0024             
1 45137U 20008G   25351.23733461  .00000229  00000+0  61941-3 0  9991
2 45137  87.8826  72.5151 0001710 103.1935 256.9383 13.10369678284412
ONEWEB-0025             
1 45138U 20008H   25351.25474721 -.00000370  00000+0 -10950-2 0  9997
2 45138  87.8810  72.5146 0002027 108.6312 251.5036 13.10372436284749
ONEWEB-0026             
1 45139U 20008J   25351.19075899  .00000402  00000+0  10978-2 0  9998
2 45139  87.8860  57.3058 0001589 100.2012 259.9295 13.11417296287258
ONEWEB-0028             
1 45140U 20008K   25351.22381223 -.00000400  00000+0 -11654-2 0  9997
2 45140  87.8850  57.3132 0002349 109.0620 251.0762 13.11416052284774
ONEWEB-0032             
1 45141U 20008L   25351.27052421 -.00000348  00000+0 -10328-2 0  9996
2 45141  87.8813  72.5400 0001838 107.1845 252.9484 13.10375444284477
