[{"OBJECT_NAME":"ONEWEB-0012","OBJECT_ID":"2019-010A","EPOCH":"2025-12-17T07:35:40.660512","MEAN_MOTION":13.16596243,"ECCENTRICITY":0.00020058,"INCLINATION":87.9037,"RA_OF_ASC_NODE":265.0044,"ARG_OF_PERICENTER":83.755,"MEAN_ANOMALY":276.3809,"EPHEMERIS_TYPE":0,"CLASSIFICATION_TYPE":"U","NORAD_CAT_ID":44057,"ELEMENT_SET_NO":999,"REV_AT_EPOCH":32763,"BSTAR":5.6969616e-5,"MEAN_MOTION_DOT":3.5e-7,"MEAN_MOTION_DDOT":0},{"OBJECT_NAME":"ONEWEB-0010","OBJECT_ID":"2019-010B","EPOCH":"2025-12-17T06:22:42.950496","MEAN_MOTION":13.16591927,"ECCENTRICITY":0.00018325,"INCLINATION":87.9044,"RA_OF_ASC_NODE":265.0045,"ARG_OF_PERICENTER":62.8919,"MEAN_ANOMALY":297.2399,"EPHEMERIS_TYPE":0,"CLASSIFICATION_TYPE":"U","NORAD_CAT_ID":44058,"ELEMENT_SET_NO":999,"REV_AT_EPOCH":32767,"BSTAR":-0.00026571669,"MEAN_MOTION_DOT":-8.9e-7,"MEAN_MOTION_DDOT":0},{"OBJECT_NAME":"ONEWEB-0008","OBJECT_ID":"2019-010C","EPOCH":"2025-12-17T06:59:11.592096","MEAN_MOTION":13.16596968,"ECCENTRICITY":0.00014879,"INCLINATION":87.9045,"RA_OF_ASC_NODE":264.9967,"ARG_OF_PERICENTER":77.4929,"MEAN_ANOMALY":282.6368,"EPHEMERIS_TYPE":0,"CLASSIFICATION_TYPE":"U","NORAD_CAT_ID":44059,"ELEMENT_SET_NO":999,"REV_AT_EPOCH":32779,"BSTAR":0.00031696504,"MEAN_MOTION_DOT":1.34e-6,"MEAN_MOTION_DDOT":0},{"OBJECT_NAME":"ONEWEB-0007","OBJECT_ID":"2019-010D","EPOCH":"2025-12-17T08:00:45.497952","MEAN_MOTION":13.15548622,"ECCENTRICITY":0.00021676,"INCLINATION":87.8996,"RA_OF_ASC_NODE":295.5154,"ARG_OF_PERICENTER":74.8065,"MEAN_ANOMALY":285.3305,"EPHEMERIS_TYPE":0,"CLASSIFICATION_TYPE":"U","NORAD_CAT_ID":44060,"ELEMENT_SET_NO":999,"REV_AT_EPOCH":32746,"BSTAR":-0.00038994451,"MEAN_MOTION_DOT":-1.34e-6,"MEAN_MOTION_DDOT":0},{"OBJECT_NAME":"ONEWEB-0006","OBJECT_ID":"2019-010E","EPOCH":"2025-12-17T08:06:27.047520","MEAN_MOTION":13.15547444,"ECCENTRICITY":0.00019434,"INCLINATION":87.9005,"RA_OF_ASC_NODE":295.4615,"ARG_OF_PERICENTER":72.6033,"MEAN_ANOMALY":287.5309,"EPHEMERIS_TYPE":0,"CLASSIFICATION_TYPE":"U","NORAD_CAT_ID":44061,"ELEMENT_SET_NO":999,"REV_AT_EPOCH":32751,"BSTAR":-3.7558925e-5,"MEAN_MOTION_DOT":-1.0e-8,"MEAN_MOTION_DDOT":0},{"OBJECT_NAME":"ONEWEB-0011","OBJECT_ID":"2019-010F","EPOCH":"2025-12-17T07:20:49.612992","MEAN_MOTION":13.15550149,"ECCENTRICITY":0.00016461,"INCLINATION":87.9002,"RA_OF_ASC_NODE":295.4769,"ARG_OF_PERICENTER":75.9691,"MEAN_ANOMALY":284.1622,"EPHEMERIS_TYPE":0,"CLASSIFICATION_TYPE":"U","NORAD_CAT_ID":44062,"ELEMENT_SET_NO":999,"REV_AT_EPOCH":32750,"BSTAR":0.00035000756,"MEAN_MOTION_DOT":1.45e-6,"MEAN_MOTION_DDOT":0},{"OBJECT_NAME":"ONEWEB-0013","OBJECT_ID":"2020-008A","EPOCH":"2025-12-17T07:28:04.154880","MEAN_MOTION":13.09445743,"ECCENTRICITY":0.00026683,"INCLINATION":87.8514,"RA_OF_ASC_NODE":89.5621,"ARG_OF_PERICENTER":112.2149,"MEAN_ANOMALY":247.9261,"EPHEMERIS_TYPE":0,"CLASSIFICATION_TYPE":"U","NORAD_CAT_ID":45131,"ELEMENT_SET_NO":999,"REV_AT_EPOCH":28226,"BSTAR":-0.0030736572,"MEAN_MOTION_DOT":-1.046e-5,"MEAN_MOTION_DDOT":0},{"OBJECT_NAME":"ONEWEB-0017","OBJECT_ID":"2020-008B","EPOCH":"2025-12-17T06:27:09.859968","MEAN_MOTION":13.10374418,"ECCENTRICITY":0.00015835,"INCLINATION":87.8809,"RA_OF_ASC_NODE":72.5406,"ARG_OF_PERICENTER":96.6284,"MEAN_ANOMALY":263.5023,"EPHEMERIS_TYPE":0,"CLASSIFICATION_TYPE":"U","NORAD_CAT_ID":45132,"ELEMENT_SET_NO":999,"REV_AT_EPOCH":28412,"BSTAR":-0.0012025659,"MEAN_MOTION_DOT":-4.07e-6,"MEAN_MOTION_DDOT":0},{"OBJECT_NAME":"ONEWEB-0020","OBJECT_ID":"2020-008C","EPOCH":"2025-12-17T05:44:09.255264","MEAN_MOTION":13.10369963,"ECCENTRICITY":0.00015388,"INCLINATION":87.8811,"RA_OF_ASC_NODE":72.5339,"ARG_OF_PERICENTER":109.6667,"MEAN_ANOMALY":250.4626,"EPHEMERIS_TYPE":0,"CLASSIFICATION_TYPE":"U","NORAD_CAT_ID":45133,"ELEMENT_SET_NO":999,"REV_AT_EPOCH":28451,"BSTAR":0.00043520796,"MEAN_MOTION_DOT":1.65e-6,"MEAN_MOTION_DDOT":0},{"OBJECT_NAME":"ONEWEB-0021","OBJECT_ID":"2020-008D","EPOCH":"2025-12-17T06:05:38.969664","MEAN_MOTION":13.10371381,"ECCENTRICITY":0.00018001,"INCLINATION":87.8805,"RA_OF_ASC_NODE":72.5599,"ARG_OF_PERICENTER":103.0264,"MEAN_ANOMALY":257.1064,"EPHEMERIS_TYPE":0,"CLASSIFICATION_TYPE":"U","NORAD_CAT_ID":45134,"ELEMENT_SET_NO":999,"REV_AT_EPOCH":28482,"BSTAR":-0.0015047102,"MEAN_MOTION_DOT":-5.13e-6,"MEAN_MOTION_DDOT":0},{"OBJECT_NAME":"ONEWEB-0023","OBJECT_ID":"2020-008F","EPOCH":"2025-12-17T06:21:11.265408","MEAN_MOTION":13.1037454,"ECCENTRICITY":0.00018409,"INCLINATION":87.8806,"RA_OF_ASC_NODE":72.5389,"ARG_OF_PERICENTER":107.8669,"MEAN_ANOMALY":252.2659,"EPHEMERIS_TYPE":0,"CLASSIFICATION_TYPE":"U","NORAD_CAT_ID":45136,"ELEMENT_SET_NO":999,"REV_AT_EPOCH":28425,"BSTAR":-0.0017336647,"MEAN_MOTION_DOT":-5.92e-6,"MEAN_MOTION_DDOT":0},{"OBJECT_NAME":"ONEWEB-0024","OBJECT_ID":"2020-008G","EPOCH":"2025-12-17T05:41:45.710304","MEAN_MOTION":13.10369678,"ECCENTRICITY":0.00017105,"INCLINATION":87.8826,"RA_OF_ASC_NODE":72.5151,"ARG_OF_PERICENTER":103.1935,"MEAN_ANOMALY":256.9383,"EPHEMERIS_TYPE":0,"CLASSIFICATION_TYPE":"U","NORAD_CAT_ID":45137,"ELEMENT_SET_NO":999,"REV_AT_EPOCH":28441,"BSTAR":0.0006194121,"MEAN_MOTION_DOT":2.29e-6,"MEAN_MOTION_DDOT":0},{"OBJECT_NAME":"ONEWEB-0025","OBJECT_ID":"2020-008H","EPOCH":"2025-12-17T06:06:50.158944","MEAN_MOTION":13.10372436,"ECCENTRICITY":0.00020271,"INCLINATION":87.881,"RA_OF_ASC_NODE":72.5146,"ARG_OF_PERICENTER":108.6312,"MEAN_ANOMALY":251.5036,"EPHEMERIS_TYPE":0,"CLASSIFICATION_TYPE":"U","NORAD_CAT_ID":45138,"ELEMENT_SET_NO":999,"REV_AT_EPOCH":28474,"BSTAR":-0.0010949815,"MEAN_MOTION_DOT":-3.7e-6,"MEAN_MOTION_DDOT":0},{"OBJECT_NAME":"ONEWEB-0026","OBJECT_ID":"2020-008J","EPOCH":"2025-12-17T04:34:41.576736","MEAN_MOTION":13.11417296,"ECCENTRICITY":0.0001589,"INCLINATION":87.886,"RA_OF_ASC_NODE":57.3058,"ARG_OF_PERICENTER":100.2012,"MEAN_ANOMALY":259.9295,"EPHEMERIS_TYPE":0,"CLASSIFICATION_TYPE":"U","NORAD_CAT_ID":45139,"ELEMENT_SET_NO":999,"REV_AT_EPOCH":28725,"BSTAR":0.0010978284,"MEAN_MOTION_DOT":4.02e-6,"MEAN_MOTION_DDOT":0},{"OBJECT_NAME":"ONEWEB-0028","OBJECT_ID":"2020-008K","EPOCH":"2025-12-17T05:22:17.376672","MEAN_MOTION":13.11416052,"ECCENTRICITY":0.00023497,"INCLINATION":87.885,"RA_OF_ASC_NODE":57.3132,"ARG_OF_PERICENTER":109.062,"MEAN_ANOMALY":251.0762,"EPHEMERIS_TYPE":0,"CLASSIFICATION_TYPE":"U","NORAD_CAT_ID":45140,"ELEMENT_SET_NO":999,"REV_AT_EPOCH":28477,"BSTAR":-0.0011653587,"MEAN_MOTION_DOT":-4.0e-6,"MEAN_MOTION_DDOT":0},{"OBJECT_NAME":"ONEWEB-0032","OBJECT_ID":"2020-008L","EPOCH":"2025-12-17T06:29:33.291744","MEAN_MOTION":13.10375444,"ECCENTRICITY":0.00018388,"INCLINATION":87.8813,"RA_OF_ASC_NODE":72.54,"ARG_OF_PERICENTER":107.1845,"MEAN_ANOMALY":252.9484,"EPHEMERIS_TYPE":0,"CLASSIFICATION_TYPE":"U","NORAD_CAT_ID":45141,"ELEMENT_SET_NO":999,"REV_AT_EPOCH":28447,"BSTAR":-0.0010328092,"MEAN_MOTION_DOT":-3.48e-6,"MEAN_MOTION_DDOT":0}]
